ONEWEB-0264             
1 48982U 21060R   23321.66973723 -.00000330  00000+0 -89712-3 0  9991
2 48982  87.9102  56.3716 0001655 101.0084 259.1233 13.16593435115573
ONEWEB-0266             
1 48984U 21060T   23321.69190935  .00000016  00000+0  79883-5 0  9991
2 48984  87.9091  56.3506 0001784 107.2802 252.8524 13.16594496115568
ONEWEB-0267             
1 48985U 21060U   23321.55047644  .00000099  00000+0  22413-3 0  9991
2 48985  87.9092  56.3800 0001317  91.9946 268.1335 13.16595838116840
ONEWEB-0268             
1 48986U 21060V   23321.67082331 -.00000094  00000+0 -27855-3 0  9999
2 48986  87.9097  56.3603 0001676 100.8855 259.2464 13.16591144115832
ONEWEB-0269             
1 48987U 21060W   23321.57580547  .00000121  00000+0  28255-3 0  9995
2 48987  87.9088  56.4051 0001745 101.1580 258.9747 13.16594534115596
ONEWEB-0270             
1 48988U 21060X   23321.66868382 -.00000047  00000+0 -15596-3 0  9995
2 48988  87.9093  56.3728 0001032 116.2534 243.8703 13.16595538115644
ONEWEB-0271             
1 48989U 21060Y   23321.50402158  .00000135  00000+0  32072-3 0  9998
2 48989  87.9093  56.3806 0001214  95.9058 264.2211 13.16593781115625
ONEWEB-0272             
1 48990U 21060Z   23321.52725043  .00000044  00000+0  80773-4 0  9994
2 48990  87.9091  56.4010 0001361  98.8911 261.2374 13.16596211115578
